[{"OBJECT_NAME":"HXMT (HUIYAN)","OBJECT_ID":"2017-034A","EPOCH":"2026-04-20T07:18:29.625984","MEAN_MOTION":15.17955387,"ECCENTRICITY":0.00307365,"INCLINATION":43.013,"RA_OF_ASC_NODE":145.2142,"ARG_OF_PERICENTER":139.9662,"MEAN_ANOMALY":220.3459,"EPHEMERIS_TYPE":0,"CLASSIFICATION_TYPE":"U","NORAD_CAT_ID":42758,"ELEMENT_SET_NO":999,"REV_AT_EPOCH":48886,"BSTAR":0.00013891367,"MEAN_MOTION_DOT":2.661e-5,"MEAN_MOTION_DDOT":0},{"OBJECT_NAME":"SAOCOM 1A","OBJECT_ID":"2018-076A","EPOCH":"2026-04-20T06:42:28.813824","MEAN_MOTION":14.82149609,"ECCENTRICITY":0.00015161,"INCLINATION":97.8892,"RA_OF_ASC_NODE":297.8646,"ARG_OF_PERICENTER":92.2138,"MEAN_ANOMALY":267.9249,"EPHEMERIS_TYPE":0,"CLASSIFICATION_TYPE":"U","NORAD_CAT_ID":43641,"ELEMENT_SET_NO":999,"REV_AT_EPOCH":40752,"BSTAR":6.2820989e-5,"MEAN_MOTION_DOT":4.48e-6,"MEAN_MOTION_DDOT":0},{"OBJECT_NAME":"H-2A R/B","OBJECT_ID":"2018-084L","EPOCH":"2026-04-20T04:36:21.436128","MEAN_MOTION":15.43017224,"ECCENTRICITY":0.00231194,"INCLINATION":98.8652,"RA_OF_ASC_NODE":336.4979,"ARG_OF_PERICENTER":236.9907,"MEAN_ANOMALY":122.9115,"EPHEMERIS_TYPE":0,"CLASSIFICATION_TYPE":"U","NORAD_CAT_ID":43682,"ELEMENT_SET_NO":999,"REV_AT_EPOCH":41217,"BSTAR":0.00028104154,"MEAN_MOTION_DOT":0.000124,"MEAN_MOTION_DDOT":0},{"OBJECT_NAME":"SAOCOM 1B","OBJECT_ID":"2020-059A","EPOCH":"2026-04-20T07:27:26.244288","MEAN_MOTION":14.82139588,"ECCENTRICITY":0.00015954,"INCLINATION":97.8886,"RA_OF_ASC_NODE":296.9898,"ARG_OF_PERICENTER":84.258,"MEAN_ANOMALY":275.8814,"EPHEMERIS_TYPE":0,"CLASSIFICATION_TYPE":"U","NORAD_CAT_ID":46265,"ELEMENT_SET_NO":999,"REV_AT_EPOCH":30491,"BSTAR":-3.5814339e-5,"MEAN_MOTION_DOT":-3.37e-6,"MEAN_MOTION_DDOT":0},{"OBJECT_NAME":"CSS (TIANHE)","OBJECT_ID":"2021-035A","EPOCH":"2026-04-20T00:39:15.045408","MEAN_MOTION":15.62589866,"ECCENTRICITY":0.00065021,"INCLINATION":41.4678,"RA_OF_ASC_NODE":316.2568,"ARG_OF_PERICENTER":241.8561,"MEAN_ANOMALY":118.1622,"EPHEMERIS_TYPE":0,"CLASSIFICATION_TYPE":"U","NORAD_CAT_ID":48274,"ELEMENT_SET_NO":999,"REV_AT_EPOCH":28407,"BSTAR":0.0002826116,"MEAN_MOTION_DOT":0.00025743,"MEAN_MOTION_DDOT":0},{"OBJECT_NAME":"COSMOS 2550","OBJECT_ID":"2021-056A","EPOCH":"2026-04-20T06:00:14.817600","MEAN_MOTION":15.33827946,"ECCENTRICITY":0.00084175,"INCLINATION":67.1424,"RA_OF_ASC_NODE":275.163,"ARG_OF_PERICENTER":269.4973,"MEAN_ANOMALY":90.5217,"EPHEMERIS_TYPE":0,"CLASSIFICATION_TYPE":"U","NORAD_CAT_ID":48865,"ELEMENT_SET_NO":999,"REV_AT_EPOCH":26983,"BSTAR":-1.37658e-7,"MEAN_MOTION_DOT":-1.96e-6,"MEAN_MOTION_DDOT":0},{"OBJECT_NAME":"CZ-2C R/B","OBJECT_ID":"2022-058K","EPOCH":"2026-04-20T06:14:12.600384","MEAN_MOTION":15.57294859,"ECCENTRICITY":0.00397315,"INCLINATION":50.1859,"RA_OF_ASC_NODE":103.936,"ARG_OF_PERICENTER":18.7163,"MEAN_ANOMALY":341.5259,"EPHEMERIS_TYPE":0,"CLASSIFICATION_TYPE":"U","NORAD_CAT_ID":52794,"ELEMENT_SET_NO":999,"REV_AT_EPOCH":21660,"BSTAR":0.0003813929,"MEAN_MOTION_DOT":0.00029051,"MEAN_MOTION_DDOT":0},{"OBJECT_NAME":"CZ-2C R/B","OBJECT_ID":"2022-132E","EPOCH":"2026-04-20T06:48:32.683104","MEAN_MOTION":15.65703732,"ECCENTRICITY":0.0013047,"INCLINATION":97.2939,"RA_OF_ASC_NODE":114.9896,"ARG_OF_PERICENTER":297.4308,"MEAN_ANOMALY":62.5625,"EPHEMERIS_TYPE":0,"CLASSIFICATION_TYPE":"U","NORAD_CAT_ID":54039,"ELEMENT_SET_NO":999,"REV_AT_EPOCH":19687,"BSTAR":0.00032743065,"MEAN_MOTION_DOT":0.00033113,"MEAN_MOTION_DDOT":0},{"OBJECT_NAME":"GSLV R/B","OBJECT_ID":"2022-138AN","EPOCH":"2026-04-20T02:25:04.421568","MEAN_MOTION":14.97004396,"ECCENTRICITY":0.00215307,"INCLINATION":87.3824,"RA_OF_ASC_NODE":152.4894,"ARG_OF_PERICENTER":8.4076,"MEAN_ANOMALY":351.7512,"EPHEMERIS_TYPE":0,"CLASSIFICATION_TYPE":"U","NORAD_CAT_ID":54149,"ELEMENT_SET_NO":999,"REV_AT_EPOCH":19012,"BSTAR":0.00012689314,"MEAN_MOTION_DOT":1.495e-5,"MEAN_MOTION_DDOT":0},{"OBJECT_NAME":"XRISM","OBJECT_ID":"2023-137A","EPOCH":"2026-04-20T02:31:38.161056","MEAN_MOTION":15.11948627,"ECCENTRICITY":0.00074891,"INCLINATION":31.0035,"RA_OF_ASC_NODE":15.6844,"ARG_OF_PERICENTER":96.8207,"MEAN_ANOMALY":263.3284,"EPHEMERIS_TYPE":0,"CLASSIFICATION_TYPE":"U","NORAD_CAT_ID":57800,"ELEMENT_SET_NO":999,"REV_AT_EPOCH":14406,"BSTAR":0.00026607376,"MEAN_MOTION_DOT":4.775e-5,"MEAN_MOTION_DDOT":0},{"OBJECT_NAME":"ACS3","OBJECT_ID":"2024-077B","EPOCH":"2026-04-20T05:31:25.944096","MEAN_MOTION":13.91556731,"ECCENTRICITY":0.00680106,"INCLINATION":97.1874,"RA_OF_ASC_NODE":42.0123,"ARG_OF_PERICENTER":352.7042,"MEAN_ANOMALY":7.3128,"EPHEMERIS_TYPE":0,"CLASSIFICATION_TYPE":"U","NORAD_CAT_ID":59588,"ELEMENT_SET_NO":999,"REV_AT_EPOCH":9997,"BSTAR":0.0077559289,"MEAN_MOTION_DOT":9.993e-5,"MEAN_MOTION_DDOT":0},{"OBJECT_NAME":"HTV-X1","OBJECT_ID":"2025-241A","EPOCH":"2026-04-19T16:00:23.050944","MEAN_MOTION":15.32697623,"ECCENTRICITY":0.00076736,"INCLINATION":51.6366,"RA_OF_ASC_NODE":235.4531,"ARG_OF_PERICENTER":331.4211,"MEAN_ANOMALY":28.6349,"EPHEMERIS_TYPE":0,"CLASSIFICATION_TYPE":"U","NORAD_CAT_ID":66174,"ELEMENT_SET_NO":999,"REV_AT_EPOCH":2722,"BSTAR":0.00019777608,"MEAN_MOTION_DOT":5.975e-5,"MEAN_MOTION_DDOT":0},{"OBJECT_NAME":"SZ-21 MODULE","OBJECT_ID":"2025-246C","EPOCH":"2026-04-19T20:12:49.363200","MEAN_MOTION":15.71748286,"ECCENTRICITY":0.00044295,"INCLINATION":41.4737,"RA_OF_ASC_NODE":309.4069,"ARG_OF_PERICENTER":295.2816,"MEAN_ANOMALY":64.7567,"EPHEMERIS_TYPE":0,"CLASSIFICATION_TYPE":"U","NORAD_CAT_ID":66515,"ELEMENT_SET_NO":999,"REV_AT_EPOCH":2454,"BSTAR":0.00027285201,"MEAN_MOTION_DOT":0.00036207,"MEAN_MOTION_DDOT":0}]
