HXMT (HUIYAN)           
1 42758U 17034A   26110.30450956  .00002661  00000+0  13891-3 0  9992
2 42758  43.0130 145.2142 0030736 139.9662 220.3459 15.17955387488863
SAOCOM 1A               
1 43641U 18076A   26110.27950016  .00000448  00000+0  62821-4 0  9998
2 43641  97.8892 297.8646 0001516  92.2138 267.9249 14.82149609407524
H-2A R/B                
1 43682U 18084L   26110.19191477  .00012400  00000+0  28104-3 0  9997
2 43682  98.8652 336.4979 0023119 236.9907 122.9115 15.43017224412171
SAOCOM 1B               
1 46265U 20059A   26110.31072042 -.00000337  00000+0 -35814-4 0  9997
2 46265  97.8886 296.9898 0001595  84.2580 275.8814 14.82139588304910
CSS (TIANHE)            
1 48274U 21035A   26110.02725747  .00025743  00000+0  28261-3 0  9992
2 48274  41.4678 316.2568 0006502 241.8561 118.1622 15.62589866284076
COSMOS 2550             
1 48865U 21056A   26110.25017150 -.00000196  00000+0 -13766-6 0  9992
2 48865  67.1424 275.1630 0008417 269.4973  90.5217 15.33827946269831
CZ-2C R/B               
1 52794U 22058K   26110.25986806  .00029051  00000+0  38139-3 0  9991
2 52794  50.1859 103.9360 0039731  18.7163 341.5259 15.57294859216607
CZ-2C R/B               
1 54039U 22132E   26110.28371161  .00033113  00000+0  32743-3 0  9992
2 54039  97.2939 114.9896 0013047 297.4308  62.5625 15.65703732196874
GSLV R/B                
1 54149U 22138AN  26110.10074562  .00001495  00000+0  12689-3 0  9991
2 54149  87.3824 152.4894 0021530   8.4076 351.7512 14.97004396190126
XRISM                   
1 57800U 23137A   26110.10530279  .00004775  00000+0  26607-3 0  9999
2 57800  31.0035  15.6844 0007489  96.8207 263.3284 15.11948627144069
ACS3                    
1 59588U 24077B   26110.23016139  .00009993  00000+0  77559-2 0  9994
2 59588  97.1874  42.0123 0068010 352.7042   7.3128 13.91556731 99979
HTV-X1                  
1 66174U 25241A   26109.66693346  .00005975  00000+0  19778-3 0  9999
2 66174  51.6366 235.4531 0007673 331.4211  28.6349 15.32697623 27223
SZ-21 MODULE            
1 66515U 25246C   26109.84223800  .00036207  00000+0  27285-3 0  9991
2 66515  41.4737 309.4069 0004429 295.2816  64.7567 15.71748286 24543
